[
  {
    "OBJECT_NAME": "NOAA 15",
    "OBJECT_ID": "1998-030A",
    "EPOCH": "2025-05-24T19:47:18.737088",
    "MEAN_MOTION": 14.26970191,
    "ECCENTRICITY": 0.0011152,
    "INCLINATION": 98.5358,
    "RA_OF_ASC_NODE": 170.3344,
    "ARG_OF_PERICENTER": 50.6167,
    "MEAN_ANOMALY": 309.6,
    "EPHEMERIS_TYPE": 0,
    "CLASSIFICATION_TYPE": "U",
    "NORAD_CAT_ID": 25338,
    "ELEMENT_SET_NO": 999,
    "REV_AT_EPOCH": 40615,
    "BSTAR": 0.00010196,
    "MEAN_MOTION_DOT": 2.05e-06,
    "MEAN_MOTION_DDOT": 0
  },
  {
    "OBJECT_NAME": "NOAA 18",
    "OBJECT_ID": "2005-018A",
    "EPOCH": "2025-05-24T20:06:44.988480",
    "MEAN_MOTION": 14.13602464,
    "ECCENTRICITY": 0.0014533,
    "INCLINATION": 98.8421,
    "RA_OF_ASC_NODE": 224.491,
    "ARG_OF_PERICENTER": 169.9265,
    "MEAN_ANOMALY": 190.2202,
    "EPHEMERIS_TYPE": 0,
    "CLASSIFICATION_TYPE": "U",
    "NORAD_CAT_ID": 28654,
    "ELEMENT_SET_NO": 999,
    "REV_AT_EPOCH": 3152,
    "BSTAR": 0.00012498,
    "MEAN_MOTION_DOT": 1.92e-06,
    "MEAN_MOTION_DDOT": 0
  },
  {
    "OBJECT_NAME": "NOAA 19",
    "OBJECT_ID": "2009-005A",
    "EPOCH": "2025-05-24T20:12:22.840128",
    "MEAN_MOTION": 14.13366222,
    "ECCENTRICITY": 0.0014489,
    "INCLINATION": 98.9978,
    "RA_OF_ASC_NODE": 209.4574,
    "ARG_OF_PERICENTER": 51.8139,
    "MEAN_ANOMALY": 308.4336,
    "EPHEMERIS_TYPE": 0,
    "CLASSIFICATION_TYPE": "U",
    "NORAD_CAT_ID": 33591,
    "ELEMENT_SET_NO": 999,
    "REV_AT_EPOCH": 83988,
    "BSTAR": 0.00012249,
    "MEAN_MOTION_DOT": 1.85e-06,
    "MEAN_MOTION_DDOT": 0
  },
  {
    "OBJECT_NAME": "SUOMI NPP",
    "OBJECT_ID": "2011-061A",
    "EPOCH": "2025-05-24T19:45:49.987008",
    "MEAN_MOTION": 14.19534172,
    "ECCENTRICITY": 0.0001881,
    "INCLINATION": 98.7574,
    "RA_OF_ASC_NODE": 84.2652,
    "ARG_OF_PERICENTER": 36.6611,
    "MEAN_ANOMALY": 323.4693,
    "EPHEMERIS_TYPE": 0,
    "CLASSIFICATION_TYPE": "U",
    "NORAD_CAT_ID": 37849,
    "ELEMENT_SET_NO": 999,
    "REV_AT_EPOCH": 70333,
    "BSTAR": 4.7203e-05,
    "MEAN_MOTION_DOT": 5.6e-07,
    "MEAN_MOTION_DDOT": 0
  },
  {
    "OBJECT_NAME": "NOAA 20 (JPSS-1)",
    "OBJECT_ID": "2017-073A",
    "EPOCH": "2025-05-24T20:08:13.626240",
    "MEAN_MOTION": 14.19539199,
    "ECCENTRICITY": 0.000129,
    "INCLINATION": 98.7413,
    "RA_OF_ASC_NODE": 83.6183,
    "ARG_OF_PERICENTER": 32.2291,
    "MEAN_ANOMALY": 327.8964,
    "EPHEMERIS_TYPE": 0,
    "CLASSIFICATION_TYPE": "U",
    "NORAD_CAT_ID": 43013,
    "ELEMENT_SET_NO": 999,
    "REV_AT_EPOCH": 38937,
    "BSTAR": 4.3554e-05,
    "MEAN_MOTION_DOT": 4.8e-07,
    "MEAN_MOTION_DDOT": 0
  },
  {
    "OBJECT_NAME": "NOAA 21 (JPSS-2)",
    "OBJECT_ID": "2022-150A",
    "EPOCH": "2025-05-24T19:19:01.258752",
    "MEAN_MOTION": 14.19533831,
    "ECCENTRICITY": 0.0001128,
    "INCLINATION": 98.7268,
    "RA_OF_ASC_NODE": 83.9068,
    "ARG_OF_PERICENTER": 173.3745,
    "MEAN_ANOMALY": 186.7446,
    "EPHEMERIS_TYPE": 0,
    "CLASSIFICATION_TYPE": "U",
    "NORAD_CAT_ID": 54234,
    "ELEMENT_SET_NO": 999,
    "REV_AT_EPOCH": 13144,
    "BSTAR": 4.6999e-05,
    "MEAN_MOTION_DOT": 5.5e-07,
    "MEAN_MOTION_DDOT": 0
  }
]