NOAA 15                 
1 25338U 98030A   25144.82452242  .00000205  00000+0  10196-3 0  9992
2 25338  98.5358 170.3344 0011152  50.6167 309.6000 14.26970191406152
NOAA 18                 
1 28654U 05018A   25144.83802070  .00000192  00000+0  12498-3 0  9991
2 28654  98.8421 224.4910 0014533 169.9265 190.2202 14.13602464 31523
NOAA 19                 
1 33591U 09005A   25144.84193102  .00000185  00000+0  12249-3 0  9993
2 33591  98.9978 209.4574 0014489  51.8139 308.4336 14.13366222839880
SUOMI NPP               
1 37849U 11061A   25144.82349522  .00000056  00000+0  47203-4 0  9991
2 37849  98.7574  84.2652 0001881  36.6611 323.4693 14.19534172703334
NOAA 20 (JPSS-1)        
1 43013U 17073A   25144.83904660  .00000048  00000+0  43554-4 0  9997
2 43013  98.7413  83.6183 0001290  32.2291 327.8964 14.19539199389375
NOAA 21 (JPSS-2)        
1 54234U 22150A   25144.80487568  .00000055  00000+0  46999-4 0  9990
2 54234  98.7268  83.9068 0001128 173.3745 186.7446 14.19533831131443
